{"type": "FeatureCollection", "features": [ {"type": "Feature", "properties": {"norad_id": 31476, "name": "FENGYUN 1C DEB", "group": "fengyun-1c-debris", "lat": 63.08960260325793, "lon": -93.75419515669572, "alt_km": 779.9318316020763, "timestamp": "2025-12-20T16:47:36.569261+00:00", "meta": {"OBJECT_NAME": "FENGYUN 1C DEB", "OBJECT_ID": "1999-025BVQ", "EPOCH": "2025-12-20T04:25:57.299808", "MEAN_MOTION": 14.22148305, "ECCENTRICITY": 0.0053498, "INCLINATION": 98.8973, "RA_OF_ASC_NODE": 67.7496, "ARG_OF_PERICENTER": 150.9842, "MEAN_ANOMALY": 209.4327, "EPHEMERIS_TYPE": 0, "CLASSIFICATION_TYPE": "U", "NORAD_CAT_ID": 31476, "ELEMENT_SET_NO": 999, "REV_AT_EPOCH": 95805, "BSTAR": 0.00108, "MEAN_MOTION_DOT": 2.384e-05, "MEAN_MOTION_DDOT": 0}, "tle": {"line1": "1 31476U 99025BVQ 25354.18469097  .00002384  00000+0  10800-2 0  9996", "line2": "2 31476  98.8973  67.7496 0053498 150.9842 209.4327 14.22148305958058"}}, "geometry": {"type": "Point", "coordinates": [-93.75419515669572, 63.08960260325793]}}, {"type": "Feature", "properties": {"norad_id": 31477, "name": "FENGYUN 1C DEB", "group": "fengyun-1c-debris", "lat": 31.23359139775848, "lon": -21.22917854795045, "alt_km": 809.4102968027773, "timestamp": "2025-12-20T16:47:36.569272+00:00", "meta": {"OBJECT_NAME": "FENGYUN 1C DEB", "OBJECT_ID": "1999-025BVR", "EPOCH": "2025-12-19T09:50:13.080768", "MEAN_MOTION": 14.02929946, "ECCENTRICITY": 0.0109841, "INCLINATION": 98.8861, "RA_OF_ASC_NODE": 342.9557, "ARG_OF_PERICENTER": 10.3178, "MEAN_ANOMALY": 350.0208, "EPHEMERIS_TYPE": 0, "CLASSIFICATION_TYPE": "U", "NORAD_CAT_ID": 31477, "ELEMENT_SET_NO": 999, "REV_AT_EPOCH": 95497, "BSTAR": 0.0003417, "MEAN_MOTION_DOT": 5.15e-06, "MEAN_MOTION_DDOT": 0}, "tle": {"line1": "1 31477U 99025BVR 25353.40987362  .00000515  00000+0  34170-3 0  9992", "line2": "2 31477  98.8861 342.9557 0109841  10.3178 350.0208 14.02929946954970"}}, "geometry": {"type": "Point", "coordinates": [-21.22917854795045, 31.23359139775848]}}, {"type": "Feature", "properties": {"norad_id": 31480, "name": "FENGYUN 1C DEB", "group": "fengyun-1c-debris", "lat": 43.330920449418194, "lon": -162.89084312210204, "alt_km": 1151.7799764320198, "timestamp": "2025-12-20T16:47:36.569282+00:00", "meta": {"OBJECT_NAME": "FENGYUN 1C DEB", "OBJECT_ID": "1999-025BVU", "EPOCH": "2025-12-18T19:38:58.728192", "MEAN_MOTION": 13.89986726, "ECCENTRICITY": 0.03442072, "INCLINATION": 98.3384, "RA_OF_ASC_NODE": 203.3713, "ARG_OF_PERICENTER": 204.4396, "MEAN_ANOMALY": 154.0108, "EPHEMERIS_TYPE": 0, "CLASSIFICATION_TYPE": "U", "NORAD_CAT_ID": 31480, "ELEMENT_SET_NO": 999, "REV_AT_EPOCH": 93480, "BSTAR": 0.0019732966, "MEAN_MOTION_DOT": 3.886e-05, "MEAN_MOTION_DDOT": 0}, "tle": {"line1": "1 31480U 99025BVU 25352.81873528  .00003886  00000+0  19733-2 0  9999", "line2": "2 31480  98.3384 203.3713 0344207 204.4396 154.0108 13.89986726934802"}}, "geometry": {"type": "Point", "coordinates": [-162.89084312210204, 43.330920449418194]}}, {"type": "Feature", "properties": {"norad_id": 31482, "name": "FENGYUN 1C DEB", "group": "fengyun-1c-debris", "lat": -18.14219836492393, "lon": 1.1030739712859023, "alt_km": 769.9824043221788, "timestamp": "2025-12-20T16:47:36.569292+00:00", "meta": {"OBJECT_NAME": "FENGYUN 1C DEB", "OBJECT_ID": "1999-025BVW", "EPOCH": "2025-12-18T23:12:11.315232", "MEAN_MOTION": 14.35682889, "ECCENTRICITY": 0.00887405, "INCLINATION": 98.3819, "RA_OF_ASC_NODE": 356.6496, "ARG_OF_PERICENTER": 263.4701, "MEAN_ANOMALY": 125.8614, "EPHEMERIS_TYPE": 0, "CLASSIFICATION_TYPE": "U", "NORAD_CAT_ID": 31482, "ELEMENT_SET_NO": 999, "REV_AT_EPOCH": 97219, "BSTAR": 0.00054542612, "MEAN_MOTION_DOT": 1.603e-05, "MEAN_MOTION_DDOT": 0}, "tle": {"line1": "1 31482U 99025BVW 25352.96679763  .00001603  00000+0  54543-3 0  9996", "line2": "2 31482  98.3819 356.6496 0088740 263.4701 125.8614 14.35682889972196"}}, "geometry": {"type": "Point", "coordinates": [1.1030739712859023, -18.14219836492393]}}, {"type": "Feature", "properties": {"norad_id": 31483, "name": "FENGYUN 1C DEB", "group": "fengyun-1c-debris", "lat": -6.657176308757482, "lon": -50.369888533824486, "alt_km": 917.2781215975365, "timestamp": "2025-12-20T16:47:36.569302+00:00", "meta": {"OBJECT_NAME": "FENGYUN 1C DEB", "OBJECT_ID": "1999-025BVX", "EPOCH": "2025-12-20T03:21:08.618976", "MEAN_MOTION": 14.16109238, "ECCENTRICITY": 0.01181193, "INCLINATION": 102.5042, "RA_OF_ASC_NODE": 307.3627, "ARG_OF_PERICENTER": 202.5288, "MEAN_ANOMALY": 176.4038, "EPHEMERIS_TYPE": 0, "CLASSIFICATION_TYPE": "U", "NORAD_CAT_ID": 31483, "ELEMENT_SET_NO": 999, "REV_AT_EPOCH": 94811, "BSTAR": 0.0016322297, "MEAN_MOTION_DOT": 3.379e-05, "MEAN_MOTION_DDOT": 0}, "tle": {"line1": "1 31483U 99025BVX 25354.13968309  .00003379  00000+0  16322-2 0  9999", "line2": "2 31483 102.5042 307.3627 0118119 202.5288 176.4038 14.16109238948118"}}, "geometry": {"type": "Point", "coordinates": [-50.369888533824486, -6.657176308757482]}}, {"type": "Feature", "properties": {"norad_id": 31484, "name": "FENGYUN 1C DEB", "group": "fengyun-1c-debris", "lat": -73.19825938000933, "lon": -21.910521955637737, "alt_km": 782.5734774455632, "timestamp": "2025-12-20T16:47:36.569314+00:00", "meta": {"OBJECT_NAME": "FENGYUN 1C DEB", "OBJECT_ID": "1999-025BVY", "EPOCH": "2025-12-16T07:12:51.702624", "MEAN_MOTION": 14.50534743, "ECCENTRICITY": 0.0083054, "INCLINATION": 101.8044, "RA_OF_ASC_NODE": 288.1066, "ARG_OF_PERICENTER": 142.077, "MEAN_ANOMALY": 218.6301, "EPHEMERIS_TYPE": 0, "CLASSIFICATION_TYPE": "U", "NORAD_CAT_ID": 31484, "ELEMENT_SET_NO": 999, "REV_AT_EPOCH": 64289, "BSTAR": 0.0030623043, "MEAN_MOTION_DOT": 0.00012484, "MEAN_MOTION_DDOT": 0}, "tle": {"line1": "1 31484U 99025BVY 25350.30059841  .00012484  00000+0  30623-2 0  9994", "line2": "2 31484 101.8044 288.1066 0083054 142.0770 218.6301 14.50534743642898"}}, "geometry": {"type": "Point", "coordinates": [-21.910521955637737, -73.19825938000933]}}, {"type": "Feature", "properties": {"norad_id": 31485, "name": "FENGYUN 1C DEB", "group": "fengyun-1c-debris", "lat": 76.88395104484108, "lon": 79.70220852651059, "alt_km": 1391.49035176506, "timestamp": "2025-12-20T16:47:36.569324+00:00", "meta": {"OBJECT_NAME": "FENGYUN 1C DEB", "OBJECT_ID": "1999-025BVZ", "EPOCH": "2025-12-18T17:44:13.555392", "MEAN_MOTION": 13.40072022, "ECCENTRICITY": 0.04462178, "INCLINATION": 102.7177, "RA_OF_ASC_NODE": 181.5069, "ARG_OF_PERICENTER": 305.9941, "MEAN_ANOMALY": 50.0576, "EPHEMERIS_TYPE": 0, "CLASSIFICATION_TYPE": "U", "NORAD_CAT_ID": 31485, "ELEMENT_SET_NO": 999, "REV_AT_EPOCH": 90525, "BSTAR": 0.0021234273, "MEAN_MOTION_DOT": 2.008e-05, "MEAN_MOTION_DDOT": 0}, "tle": {"line1": "1 31485U 99025BVZ 25352.73904578  .00002008  00000+0  21234-2 0  9999", "line2": "2 31485 102.7177 181.5069 0446217 305.9941  50.0576 13.40072022905258"}}, "geometry": {"type": "Point", "coordinates": [79.70220852651059, 76.88395104484108]}}, {"type": "Feature", "properties": {"norad_id": 31487, "name": "FENGYUN 1C DEB", "group": "fengyun-1c-debris", "lat": 58.905832210704425, "lon": 144.5097012973002, "alt_km": 956.0993388736824, "timestamp": "2025-12-20T16:47:36.569337+00:00", "meta": {"OBJECT_NAME": "FENGYUN 1C DEB", "OBJECT_ID": "1999-025BWB", "EPOCH": "2025-12-17T18:08:34.599264", "MEAN_MOTION": 13.97752713, "ECCENTRICITY": 0.01207253, "INCLINATION": 102.4129, "RA_OF_ASC_NODE": 161.9631, "ARG_OF_PERICENTER": 294.4769, "MEAN_ANOMALY": 80.0779, "EPHEMERIS_TYPE": 0, "CLASSIFICATION_TYPE": "U", "NORAD_CAT_ID": 31487, "ELEMENT_SET_NO": 999, "REV_AT_EPOCH": 94482, "BSTAR": 0.0013053066, "MEAN_MOTION_DOT": 1.89e-05, "MEAN_MOTION_DDOT": 0}, "tle": {"line1": "1 31487U 99025BWB 25351.75595601  .00001890  00000+0  13053-2 0  9993", "line2": "2 31487 102.4129 161.9631 0120725 294.4769  80.0779 13.97752713944822"}}, "geometry": {"type": "Point", "coordinates": [144.5097012973002, 58.905832210704425]}}, {"type": "Feature", "properties": {"norad_id": 31491, "name": "FENGYUN 1C DEB", "group": "fengyun-1c-debris", "lat": 78.30275978290143, "lon": 136.053467838174, "alt_km": 858.6815059966038, "timestamp": "2025-12-20T16:47:36.569347+00:00", "meta": {"OBJECT_NAME": "FENGYUN 1C DEB", "OBJECT_ID": "1999-025BWE", "EPOCH": "2025-12-18T05:01:58.636416", "MEAN_MOTION": 14.1729953, "ECCENTRICITY": 0.00511133, "INCLINATION": 99.3072, "RA_OF_ASC_NODE": 261.0688, "ARG_OF_PERICENTER": 253.212, "MEAN_ANOMALY": 106.3442, "EPHEMERIS_TYPE": 0, "CLASSIFICATION_TYPE": "U", "NORAD_CAT_ID": 31491, "ELEMENT_SET_NO": 999, "REV_AT_EPOCH": 63805, "BSTAR": 0.0014383052, "MEAN_MOTION_DOT": 2.896e-05, "MEAN_MOTION_DDOT": 0}, "tle": {"line1": "1 31491U 99025BWE 25352.20970644  .00002896  00000+0  14383-2 0  9997", "line2": "2 31491  99.3072 261.0688 0051113 253.2120 106.3442 14.17299530638050"}}, "geometry": {"type": "Point", "coordinates": [136.053467838174, 78.30275978290143]}}, {"type": "Feature", "properties": {"norad_id": 31492, "name": "FENGYUN 1C DEB", "group": "fengyun-1c-debris", "lat": 79.54919799426636, "lon": 103.68699871801213, "alt_km": 658.1610278020316, "timestamp": "2025-12-20T16:47:36.569357+00:00", "meta": {"OBJECT_NAME": "FENGYUN 1C DEB", "OBJECT_ID": "1999-025BWF", "EPOCH": "2025-12-17T10:03:11.000448", "MEAN_MOTION": 14.70935194, "ECCENTRICITY": 0.00645141, "INCLINATION": 98.8575, "RA_OF_ASC_NODE": 157.8403, "ARG_OF_PERICENTER": 354.4182, "MEAN_ANOMALY": 5.6296, "EPHEMERIS_TYPE": 0, "CLASSIFICATION_TYPE": "U", "NORAD_CAT_ID": 31492, "ELEMENT_SET_NO": 999, "REV_AT_EPOCH": 96575, "BSTAR": 0.0023655093, "MEAN_MOTION_DOT": 0.00014935, "MEAN_MOTION_DDOT": 0}, "tle": {"line1": "1 31492U 99025BWF 25351.41887732  .00014935  00000+0  23655-2 0  9994", "line2": "2 31492  98.8575 157.8403 0064514 354.4182   5.6296 14.70935194965751"}}, "geometry": {"type": "Point", "coordinates": [103.68699871801213, 79.54919799426636]}}]}